STARLINK-30596          
1 58110U 23161P   26068.54923750  .00001569  00000+0  65109-4 0  9990
2 58110  53.1581 165.9283 0000953  81.4219 278.6890 15.30185320134406
GLOBAL-34               
1 68098U 26043A   26068.47466435  .00014018  00000+0  45822-3 0  9994
2 68098  42.0215  76.7399 0006884 289.2632  70.7460 15.31488019   538
